NORAD_CAT_ID,OBJECT_NAME,OBJECT_TYPE,EPOCH,MEAN_MOTION,ECCENTRICITY,INCLINATION,RA_OF_ASC_NODE,ARG_OF_PERICENTER,MEAN_ANOMALY,BSTAR,MEAN_MOTION_DOT,MEAN_MOTION_DDOT,TLE_LINE0,TLE_LINE1,TLE_LINE2,SEMIMAJOR_AXIS,PERIOD,APOGEE,PERIGEE,DECAYED
51750.0,STARLINK-3505,PAYLOAD,2022-08-03 14:00:01,15.08827613,0.0002015,53.2163,88.3805,67.6593,37.0904,0.0024399,0.00038744,0.0,0 STARLINK-3505,1 51750U 22016AN  22215.58334491  .00038744  00000-0  24399-2 0  9993,2 51750  53.2163  88.3805 0002015  67.6593  37.0904 15.08827613  1304,6917.918000000002,95.438,541.177,538.389,0.0
51750.0,STARLINK-3505,PAYLOAD,2022-08-03 22:00:01,15.08854114,0.0002133,53.2164,86.8858,63.1297,53.2806,-0.0011888,-0.00019166,0.0,0 STARLINK-3505,1 51750U 22016AN  22215.91668981 -.00019166  00000-0 -11888-2 0  9992,2 51750  53.2164  86.8858 0002133  63.1297  53.2806 15.08854114 26482,6917.837,95.437,541.178,538.227,0.0
51750.0,STARLINK-3505,PAYLOAD,2022-08-04 14:00:01,15.08770294,0.0002145,53.2169,83.8791,63.2857,76.2475,0.0064339,0.00103417,0.0,0 STARLINK-3505,1 51750U 22016AN  22216.58334491  .00103417  00000-0  64339-2 0  9992,2 51750  53.2169  83.8791 0002145  63.2857  76.2475 15.08770294  1303,6918.093000000003,95.442,541.442,538.475,0.0
51750.0,STARLINK-3505,PAYLOAD,2022-08-04 22:00:00,15.08833188,0.0002109,53.2166,82.3966,62.4976,88.6167,-0.00051516,-8.476e-05,0.0,0 STARLINK-3505,1 51750U 22016AN  22216.91667824 -.00008476  00000-0 -51516-3 0  9993,2 51750  53.2166  82.3966 0002109  62.4976  88.6167 15.08833188  1308,6917.901,95.438,541.225,538.307,0.0
51750.0,STARLINK-3505,PAYLOAD,2022-08-05 06:00:02,15.08851796,0.0002068,53.2167,80.8996,61.8744,100.8826,-0.0016812,-0.00026954,0.0,0 STARLINK-3505,1 51750U 22016AN  22217.25002315 -.00026954  00000-0 -16812-2 0  9999,2 51750  53.2167  80.8996 0002068  61.8744 100.8826 15.08851796 26687,6917.844,95.437,541.14,538.279,0.0
51750.0,STARLINK-3505,PAYLOAD,2022-08-05 14:00:01,15.08833468,0.000204,53.2171,79.4021,68.1743,106.1829,0.0019255,0.00030484,0.0,0 STARLINK-3505,1 51750U 22016AN  22217.58335648  .00030484  00000-0  19255-2 0  9998,2 51750  53.2171  79.4021 0002040  68.1743 106.1829 15.08833468  1304,6917.9,95.438,541.177,538.354,0.0
51750.0,STARLINK-3505,PAYLOAD,2022-08-05 22:00:00,15.08846442,0.0002164,53.2172,77.9075,62.6288,123.2681,-3.1366e-05,-7.88e-06,0.0,0 STARLINK-3505,1 51750U 22016AN  22217.91667824 -.00000788  00000-0 -31366-4 0  9994,2 51750  53.2172  77.9075 0002164  62.6288 123.2681 15.08846442  1309,6917.861,95.437,541.2230000000002,538.229,0.0
51750.0,STARLINK-3505,PAYLOAD,2022-08-06 00:00:02,15.08835141,0.0002179,53.2174,77.5337,61.6155,217.2483,0.0016561,0.00026164,0.0,0 STARLINK-3505,1 51750U 22016AN  22218.00002315  .00026164  00000-0  16561-2 0  9995,2 51750  53.2174  77.5337 0002179  61.6155 217.2483 15.08835141 26794,6917.895,95.438,541.268,538.253,0.0
51750.0,STARLINK-3505,PAYLOAD,2022-08-06 14:00:01,15.08823203,0.0001981,53.2178,74.9131,67.7744,141.3256,0.0017066,0.00026965,0.0,0 STARLINK-3505,1 51750U 22016AN  22218.58334491  .00026965  00000-0  17066-2 0  9991,2 51750  53.2178  74.9131 0001981  67.7744 141.3256 15.08823203 26883,6917.932,95.439,541.1669999999998,538.4259999999998,0.0
51750.0,STARLINK-3505,PAYLOAD,2022-08-06 21:01:34,15.088369,0.0002059,53.2185,73.6002,64.2082,295.9123,5.0631e-05,5.18e-06,0.0,0 STARLINK-3505,1 51750U 22016AN  22218.87609754  .00000518  00000-0  50631-4 0  9993,2 51750  53.2185  73.6002 0002059  64.2082 295.9123 15.08836900 25817,6917.89,95.438,541.179,538.33,0.0
51750.0,STARLINK-3505,PAYLOAD,2022-08-07 06:00:00,15.08856053,0.0002023,53.218,71.9215,63.0177,169.2495,-0.002018,-0.00032276,0.0,0 STARLINK-3505,1 51750U 22016AN  22219.25001157 -.00032276  00000-0 -20180-2 0  9991,2 51750  53.2180  71.9215 0002023  63.0177 169.2495 15.08856053 26987,6917.831,95.437,541.096,538.297,0.0
51750.0,STARLINK-3505,PAYLOAD,2022-08-07 14:00:01,15.08851609,0.0001950999999999,53.2183,70.4243,68.8982,174.9673,-0.001429,-0.00022966,0.0,0 STARLINK-3505,1 51750U 22016AN  22219.58334491 -.00022966  00000-0 -14290-2 0  9997,2 51750  53.2183  70.4243 0001951  68.8982 174.9673 15.08851609  1303,6917.845,95.437,541.06,538.36,0.0
51750.0,STARLINK-3505,PAYLOAD,2022-08-07 20:52:21,15.08846978,0.0002017,53.2177,69.1394,68.2522,291.8685,0.00012341,1.677e-05,0.0,0 STARLINK-3505,1 51750U 22016AN  22219.86969221  .00001677  00000-0  12341-3 0  9993,2 51750  53.2177  69.1394 0002017  68.2522 291.8685 15.08846978 25969,6917.859,95.437,541.119,538.3290000000002,0.0
51750.0,STARLINK-3505,PAYLOAD,2022-08-08 06:00:00,15.08850554,0.0001909,53.2182,67.4326,63.1781,203.8667,-0.0017987,-0.00028809,0.0,0 STARLINK-3505,1 51750U 22016AN  22220.25001157 -.00028809  00000-0 -17987-2 0  9991,2 51750  53.2182  67.4326 0001909  63.1781 203.8667 15.08850554 27130,6917.848000000001,95.437,541.034,538.393,0.0
51750.0,STARLINK-3505,PAYLOAD,2022-08-08 14:00:01,15.08844148,0.0001868,53.2184,65.9355,69.4056,209.2985,0.0015472,0.00024424,0.0,0 STARLINK-3505,1 51750U 22016AN  22220.58335648  .00024424  00000-0  15472-2 0  9996,2 51750  53.2184  65.9355 0001868  69.4056 209.2985 15.08844148  1301,6917.868,95.437,541.025,538.44,0.0
51750.0,STARLINK-3505,PAYLOAD,2022-08-08 22:00:00,15.08854267,0.0001953,53.2183,64.441,62.3853,227.8682,4.2729e-05,3.92e-06,0.0,0 STARLINK-3505,1 51750U 22016AN  22220.91667824  .00000392  00000-0  42729-4 0  9992,2 51750  53.2183  64.4410 0001953  62.3853 227.8682 15.08854267 27231,6917.837,95.437,541.053,538.351,0.0
51750.0,STARLINK-3505,PAYLOAD,2022-08-09 14:00:01,15.08837227,0.0001655,53.2181,61.4466,68.9593,244.5017,-0.00073787,-0.00012011,0.0,0 STARLINK-3505,1 51750U 22016AN  22221.58334491 -.00012011  00000-0 -73787-3 0  9997,2 51750  53.2181  61.4466 0001655  68.9593 244.5017 15.08837227  1304,6917.889,95.438,540.899,538.609,0.0
51750.0,STARLINK-3505,PAYLOAD,2022-08-09 22:00:00,15.08807957,0.0001764,53.2178,59.9521,61.0486,263.9957,0.0015408,0.00024297,0.0,0 STARLINK-3505,1 51750U 22016AN  22221.91667824  .00024297  00000-0  15408-2 0  9995,2 51750  53.2178  59.9521 0001764  61.0486 263.9957 15.08807957  1305,6917.978,95.44,541.064,538.623,0.0
51750.0,STARLINK-3505,PAYLOAD,2022-08-10 14:00:01,15.08839846,0.0001638,53.2175,56.9577,69.9555,278.2349,0.00042365,6.461e-05,0.0,0 STARLINK-3505,1 51750U 22016AN  22222.58334491  .00006461  00000-0  42365-3 0  9996,2 51750  53.2175  56.9577 0001638  69.9555 278.2349 15.08839846  1300,6917.880999999999,95.438,540.879,538.613,0.0
51750.0,STARLINK-3505,PAYLOAD,2022-08-10 17:07:18,15.08849152,0.0001681,53.2173,56.3746,66.295,268.7908,-0.001534,-0.00024625,0.0,0 STARLINK-3505,1 51750U 22016AN  22222.71341435 -.00024625  00000-0 -15340-2 0  9993,2 51750  53.2173  56.3746 0001681  66.2950 268.7908 15.08849152 27503,6917.852,95.437,540.88,538.555,0.0
51750.0,STARLINK-3505,PAYLOAD,2022-08-10 22:00:00,15.08823426,0.0001746,53.2173,55.463,62.1523,297.6349,0.0016756,0.00026468,0.0,0 STARLINK-3505,1 51750U 22016AN  22222.91667824  .00026468  00000-0  16756-2 0  9995,2 51750  53.2173  55.4630 0001746  62.1523 297.6349 15.08823426  1304,6917.931,95.439,541.004,538.5880000000002,0.0
51750.0,STARLINK-3505,PAYLOAD,2022-08-11 14:00:01,15.08829329,0.0001567,53.217,52.4685,68.6182,314.3351,-0.00010994,-2.037e-05,0.0,0 STARLINK-3505,1 51750U 22016AN  22223.58334491 -.00002037  00000-0 -10994-3 0  9997,2 51750  53.2170  52.4685 0001567  68.6182 314.3351 15.08829329  1309,6917.913000000001,95.438,540.862,538.694,0.0
51750.0,STARLINK-3505,PAYLOAD,2022-08-11 22:00:00,15.08808001,0.0001683,53.217,50.9737,60.6256,333.9135,0.0022825,0.00036193,0.0,0 STARLINK-3505,1 51750U 22016AN  22223.91667824  .00036193  00000-0  22825-2 0  9996,2 51750  53.2170  50.9737 0001683  60.6256 333.9135 15.08808001 27694,6917.978,95.44,541.007,538.679,0.0
51750.0,STARLINK-3505,PAYLOAD,2022-08-12 14:00:01,15.0885418,0.0001621999999999,53.217,47.979,67.3761,350.3263,-0.00028529,-4.827e-05,0.0,0 STARLINK-3505,1 51750U 22016AN  22224.58334491 -.00004827  00000-0 -28529-3 0  9990,2 51750  53.2170  47.9790 0001622  67.3761 350.3263 15.08854180  1301,6917.837,95.437,540.8240000000002,538.58,0.0
51750.0,STARLINK-3505,PAYLOAD,2022-08-12 22:00:01,15.08833534,0.0001696999999999,53.2172,46.4841,59.0545,10.3235,0.0019555999999999,0.00030967,0.0,0 STARLINK-3505,1 51750U 22016AN  22224.91668981  .00030967  00000-0  19556-2 0  9992,2 51750  53.2172  46.4841 0001697  59.0545  10.3235 15.08833534 27843,6917.9,95.438,540.939,538.591,0.0
51750.0,STARLINK-3505,PAYLOAD,2022-08-13 14:00:01,15.08847706,0.0001575999999999,53.2176,43.4895,64.6121,27.8901,-0.00081407,-0.00013223,0.0,0 STARLINK-3505,1 51750U 22016AN  22225.58334491 -.00013223  00000-0 -81407-3 0  9995,2 51750  53.2176  43.4895 0001576  64.6121  27.8901 15.08847706  1303,6917.857,95.437,540.812,538.632,0.0
51750.0,STARLINK-3505,PAYLOAD,2022-08-13 22:00:00,15.08822244,0.0001653,53.2178,41.9947,56.0944,48.0109,0.0020971,0.00033229,0.0,0 STARLINK-3505,1 51750U 22016AN  22225.91667824  .00033229  00000-0  20971-2 0  9995,2 51750  53.2178  41.9947 0001653  56.0944  48.0109 15.08822244  1305,6917.935,95.439,540.943,538.656,0.0
51750.0,STARLINK-3505,PAYLOAD,2022-08-14 14:00:01,15.088435999999998,0.0001504,53.2184,39.0003,61.6934,65.586,-0.00098165,-0.00015878,0.0,0 STARLINK-3505,1 51750U 22016AN  22226.58334491 -.00015878  00000-0 -98165-3 0  9993,2 51750  53.2184  39.0003 0001504  61.6934  65.5860 15.08843600  1306,6917.869000000002,95.437,540.775,538.694,0.0
51750.0,STARLINK-3505,PAYLOAD,2022-08-14 16:00:01,15.08842386,0.0001541999999999,53.2184,38.6268,59.1985,161.0428,-0.001187,-0.00019131,0.0,0 STARLINK-3505,1 51750U 22016AN  22226.66668981 -.00019131  00000-0 -11870-2 0  9999,2 51750  53.2184  38.6268 0001542  59.1985 161.0428 15.08842386 28103,6917.873000000001,95.437,540.805,538.6709999999998,0.0
